NORAD_CAT_ID,OBJECT_NAME,OBJECT_TYPE,EPOCH,MEAN_MOTION,ECCENTRICITY,INCLINATION,RA_OF_ASC_NODE,ARG_OF_PERICENTER,MEAN_ANOMALY,BSTAR,MEAN_MOTION_DOT,MEAN_MOTION_DDOT,TLE_LINE0,TLE_LINE1,TLE_LINE2,SEMIMAJOR_AXIS,PERIOD,APOGEE,PERIGEE,DECAYED
51744.0,STARLINK-3452,PAYLOAD,2022-05-26 06:00:00,15.08855791,0.0001796,53.2161,49.6084,50.822,242.5679,-0.0011839,-0.00019089,0.0,0 STARLINK-3452,1 51744U 22016AG  22146.25001157 -.00019089  00000-0 -11839-2 0  9991,2 51744  53.2161  49.6084 0001796  50.8220 242.5679 15.08855791 15776,6917.831999999999,95.437,540.94,538.455,0.0
51744.0,STARLINK-3452,PAYLOAD,2022-05-26 14:00:01,15.08815859,0.0001654,53.2165,48.1102,57.1552,247.8513,0.00064401,9.97e-05,0.0,0 STARLINK-3452,1 51744U 22016AG  22146.58334491  .00009970  00000-0  64401-3 0  9997,2 51744  53.2165  48.1102 0001654  57.1552 247.8513 15.08815859  1306,6917.954000000002,95.439,540.9630000000002,538.675,0.0
51744.0,STARLINK-3452,PAYLOAD,2022-05-26 22:00:00,15.08819865,0.0001856,53.2167,46.6151,56.3536,260.2201,-0.00085614,-0.0001388,0.0,0 STARLINK-3452,1 51744U 22016AG  22146.91667824 -.00013880  00000-0 -85614-3 0  9999,2 51744  53.2167  46.6151 0001856  56.3536 260.2201 15.08819865  1306,6917.941999999999,95.439,541.091,538.523,0.0
51744.0,STARLINK-3452,PAYLOAD,2022-05-27 14:00:01,15.0880494,0.0001774,53.217,43.6214,59.7982,279.9225,0.0038032,0.00060703,0.0,0 STARLINK-3452,1 51744U 22016AG  22147.58334491  .00060703  00000-0  38032-2 0  9999,2 51744  53.2170  43.6214 0001774  59.7982 279.9225 15.08804940  1309,6917.988,95.44,541.08,538.625,0.0
51744.0,STARLINK-3452,PAYLOAD,2022-05-27 16:00:00,15.08819613,0.0001805,53.2172,43.2472,61.1215,11.4884,0.0029152,0.00046387,0.0,0 STARLINK-3452,1 51744U 22016AG  22147.66667824  .00046387  00000-0  29152-2 0  9992,2 51744  53.2172  43.2472 0001805  61.1215  11.4884 15.08819613 15997,6917.943,95.439,541.056,538.559,0.0
51744.0,STARLINK-3452,PAYLOAD,2022-05-27 22:02:20,15.08830625,0.0001806,53.2188,42.12,49.437,310.6779,2.1725e-06,-2.54e-06,0.0,0 STARLINK-3452,1 51744U 22016AG  22147.91829811 -.00000254  00000-0  21725-5 0  9991,2 51744  53.2188  42.1200 0001806  49.4370 310.6779 15.08830625 14962,6917.909000000002,95.438,541.023,538.525,0.0
51744.0,STARLINK-3452,PAYLOAD,2022-05-28 06:00:02,15.08869981,0.0001883,53.2171,40.6304,52.6574,310.3018,-0.0019052,-0.00030507,0.0,0 STARLINK-3452,1 51744U 22016AG  22148.25002315 -.00030507  00000-0 -19052-2 0  9993,2 51744  53.2171  40.6304 0001883  52.6574 310.3018 15.08869981 16073,6917.7890000000025,95.436,540.956,538.351,0.0
51744.0,STARLINK-3452,PAYLOAD,2022-05-28 14:00:01,15.08817269,0.0001683,53.2174,39.1324,59.7153,314.8158,0.0040793,0.00065194,0.0,0 STARLINK-3452,1 51744U 22016AG  22148.58334491  .00065194  00000-0  40793-2 0  9996,2 51744  53.2174  39.1324 0001683  59.7153 314.8158 15.08817269  1306,6917.95,95.439,540.979,538.651,0.0
51744.0,STARLINK-3452,PAYLOAD,2022-05-28 20:17:43,15.08842613,0.0001884,53.2186,37.956,52.3456,307.7707,0.00010067,1.315e-05,0.0,0 STARLINK-3452,1 51744U 22016AG  22148.84564631  .00001315  00000-0  10067-3 0  9993,2 51744  53.2186  37.9560 0001884  52.3456 307.7707 15.08842613 16167,6917.871999999999,95.437,541.0409999999998,538.434,0.0
51744.0,STARLINK-3452,PAYLOAD,2022-05-29 14:00:01,15.08808847,0.0001549,53.2174,34.6435,57.4991,351.8338,0.00077674,0.00012085,0.0,0 STARLINK-3452,1 51744U 22016AG  22149.58334491  .00012085  00000-0  77674-3 0  9997,2 51744  53.2174  34.6435 0001549  57.4991 351.8338 15.08808847 16281,6917.976,95.44,540.9119999999998,538.769,0.0
51744.0,STARLINK-3452,PAYLOAD,2022-05-29 21:43:55,15.08832871,0.0001855,53.2177,33.1972,58.9427,301.1747,-4.2045e-05,-9.57e-06,0.0,0 STARLINK-3452,1 51744U 22016AG  22149.90549973 -.00000957  00000-0 -42045-4 0  9998,2 51744  53.2177  33.1972 0001855  58.9427 301.1747 15.08832871 15267,6917.901999999999,95.438,541.05,538.484,0.0
51744.0,STARLINK-3452,PAYLOAD,2022-05-30 14:00:01,15.08802554,0.0001599,53.2169,30.1547,61.4911,22.5378,0.0032542,0.0005183,0.0,0 STARLINK-3452,1 51744U 22016AG  22150.58334491  .00051830  00000-0  32542-2 0  9994,2 51744  53.2169  30.1547 0001599  61.4911  22.5378 15.08802554 16434,6917.995,95.44,540.966,538.754,0.0
51744.0,STARLINK-3452,PAYLOAD,2022-05-30 22:00:00,15.08836619,0.000175,53.2168,28.6602,57.299,38.2988,-0.00084581,-0.00013723,0.0,0 STARLINK-3452,1 51744U 22016AG  22150.91667824 -.00013723  00000-0 -84581-3 0  9992,2 51744  53.2168  28.6602 0001750  57.2990  38.2988 15.08836619  1306,6917.891,95.438,540.966,538.545,0.0
51744.0,STARLINK-3452,PAYLOAD,2022-05-31 06:00:02,15.08846161,0.0001754,53.2163,27.1634,55.6096,51.6302,-0.00081506,-0.00013239,0.0,0 STARLINK-3452,1 51744U 22016AG  22151.25002315 -.00013239  00000-0 -81506-3 0  9994,2 51744  53.2163  27.1634 0001754  55.6096  51.6302 15.08846161 16536,6917.861999999999,95.437,540.94,538.513,0.0
51744.0,STARLINK-3452,PAYLOAD,2022-05-31 22:00:00,15.08854327,0.0001781999999999,53.2161,24.1711,58.5561,71.8198,-0.00056423,-9.26e-05,0.0,0 STARLINK-3452,1 51744U 22016AG  22151.91667824 -.00009260  00000-0 -56423-3 0  9998,2 51744  53.2161  24.1711 0001782  58.5561  71.8198 15.08854327 16638,6917.837,95.437,540.934,538.469,0.0
51744.0,STARLINK-3452,PAYLOAD,2022-06-01 20:00:01,15.08843805,0.0001851,53.216,20.0554,57.1306,15.2128,-0.0015545,-0.00024946,0.0,0 STARLINK-3452,1 51744U 22016AG  22152.83334491 -.00024946  00000-0 -15545-2 0  9998,2 51744  53.2160  20.0554 0001851  57.1306  15.2128 15.08843805 16775,6917.869000000002,95.437,541.014,538.453,0.0
51744.0,STARLINK-3452,PAYLOAD,2022-06-02 21:07:03,15.08843145,0.0001758,53.218,15.3567,54.2658,305.8498,-2.9136e-06,-3.34e-06,0.0,0 STARLINK-3452,1 51744U 22016AG  22153.87989883 -.00000334  00000-0 -29136-5 0  9993,2 51744  53.2180  15.3567 0001758  54.2658 305.8498 15.08843145 15866,6917.871,95.437,540.952,538.52,0.0
51744.0,STARLINK-3452,PAYLOAD,2022-06-03 00:17:49,15.0884636,0.0001478,53.2168,14.7614,52.0697,308.0429,-0.00010942,-2.029e-05,0.0,0 STARLINK-3452,1 51744U 22016AG  22154.01238002 -.00002029  00000-0 -10942-3 0  9996,2 51744  53.2168  14.7614 0001478  52.0697 308.0429 15.08846360 16947,6917.861,95.437,540.748,538.703,0.0
51744.0,STARLINK-3452,PAYLOAD,2022-06-03 08:14:45,15.08841599,0.0001517,53.2168,13.2747,51.2239,308.8888,-0.0001369,-2.466e-05,0.0,0 STARLINK-3452,1 51744U 22016AG  22154.34358263 -.00002466  00000-0 -13690-3 0  9992,2 51744  53.2168  13.2747 0001517  51.2239 308.8888 15.08841599 15939,6917.876,95.437,540.79,538.691,0.0
51744.0,STARLINK-3452,PAYLOAD,2022-06-03 17:47:04,15.08843739,0.0001512,53.2176,11.4895,51.7991,308.3137,-0.00017194,-3.024e-05,0.0,0 STARLINK-3452,1 51744U 22016AG  22154.74102124 -.00003024  00000-0 -17194-3 0  9993,2 51744  53.2176  11.4895 0001512  51.7991 308.3137 15.08843739 15993,6917.869000000002,95.437,540.78,538.688,0.0
51744.0,STARLINK-3452,PAYLOAD,2022-06-04 01:43:59,15.08844501,0.0001635,53.2178,10.0027,55.9472,304.1675,-2.1631e-05,-6.32e-06,0.0,0 STARLINK-3452,1 51744U 22016AG  22155.07221509 -.00000632  00000-0 -21631-4 0  9993,2 51744  53.2178  10.0027 0001635  55.9472 304.1675 15.08844501 17107,6917.8669999999975,95.437,540.863,538.601,0.0
51744.0,STARLINK-3452,PAYLOAD,2022-06-05 22:00:00,15.08833503,0.0001891,53.2173,1.7247,54.2381,250.0557,0.0010199,0.00015978,0.0,0 STARLINK-3452,1 51744U 22016AG  22156.91667824  .00015978  00000-0  10199-2 0  9993,2 51744  53.2173   1.7247 0001891  54.2381 250.0557 15.08833503 17386,6917.9,95.438,541.073,538.457,0.0
51744.0,STARLINK-3452,PAYLOAD,2022-06-06 14:00:01,15.08861723,0.0001767,53.2173,358.7303,63.1977,264.2939,-0.0019729,-0.00031569,0.0,0 STARLINK-3452,1 51744U 22016AG  22157.58334491 -.00031569  00000-0 -19729-2 0  9992,2 51744  53.2173 358.7303 0001767  63.1977 264.2939 15.08861723  1307,6917.814,95.436,540.901,538.457,0.0
51744.0,STARLINK-3452,PAYLOAD,2022-06-06 22:00:00,15.08820257,0.0001965,53.2171,357.2358,57.907,281.1964,0.0013584,0.00021385,0.0,0 STARLINK-3452,1 51744U 22016AG  22157.91667824  .00021385  00000-0  13584-2 0  9994,2 51744  53.2171 357.2358 0001965  57.9070 281.1964 15.08820257 17539,6917.941,95.439,541.165,538.446,0.0
51744.0,STARLINK-3452,PAYLOAD,2022-06-07 14:00:01,15.08848067,0.0001814,53.2169,354.2416,65.8215,296.4512,0.00033892,5.111e-05,0.0,0 STARLINK-3452,1 51744U 22016AG  22158.58334491  .00005111  00000-0  33892-3 0  9993,2 51744  53.2169 354.2416 0001814  65.8215 296.4512 15.08848067  1305,6917.856,95.437,540.976,538.466,0.0
51744.0,STARLINK-3452,PAYLOAD,2022-06-07 22:00:00,15.08848506,0.0001904,53.2167,352.747,58.5862,315.2999,-0.00076041,-0.00012373,0.0,0 STARLINK-3452,1 51744U 22016AG  22158.91667824 -.00012373  00000-0 -76041-3 0  9992,2 51744  53.2167 352.7470 0001904  58.5862 315.2999 15.08848506 17688,6917.854,95.437,541.0369999999998,538.4019999999998,0.0
51744.0,STARLINK-3452,PAYLOAD,2022-06-08 14:00:01,15.08849532,0.000171,53.2164,349.7527,64.6293,332.4401,-0.00083571,-0.00013567,0.0,0 STARLINK-3452,1 51744U 22016AG  22159.58334491 -.00013567  00000-0 -83571-3 0  9999,2 51744  53.2164 349.7527 0001710  64.6293 332.4401 15.08849532  1306,6917.851,95.437,540.899,538.533,0.0
51744.0,STARLINK-3452,PAYLOAD,2022-06-08 22:00:01,15.08811338,0.0001788,53.2162,348.2579,57.1572,351.5808,0.00076558,0.00011908,0.0,0 STARLINK-3452,1 51744U 22016AG  22159.91668981  .00011908  00000-0  76558-3 0  9992,2 51744  53.2162 348.2579 0001788  57.1572 351.5808 15.08811338 17849,6917.968000000003,95.439,541.07,538.596,0.0
51744.0,STARLINK-3452,PAYLOAD,2022-06-09 14:00:01,15.08836419,0.0001693,53.216,345.2636,63.2768,8.5314,-0.00045327,-7.494e-05,0.0,0 STARLINK-3452,1 51744U 22016AG  22160.58334491 -.00007494  00000-0 -45327-3 0  9990,2 51744  53.2160 345.2636 0001693  63.2768   8.5314 15.08836419  1300,6917.891,95.438,540.928,538.585,0.0
